MALLIGYONG-1            
1 58400U 23179A   24127.89858615  .00008025  00000+0  35066-3 0  9992
2 58400  97.4098  15.3734 0010740  55.6385 304.5866 15.22311415 25445
